#dP2023  1 12  6  0  0.00000000      96 __u+U ITR00 EXT  IAC
## 2244 367200.00000000   900.00000000 59956 0.2500000000000
+  118   C06C07C08C09C10C11C12C13C14C16C19C20C21C22C23C24C25
+        C26C27C28C29C30C32C33C34C35C36C37C38C39C40C41C42C43
+        C44C45C46E01E02E03E04E05E07E08E09E10E11E12E13E14E15
+        E18E19E21E24E25E26E27E30E31E33E34E36G01G02G03G04G05
+        G06G07G08G09G10G11G12G13G14G15G16G17G18G19G20G21G23
+        G24G25G26G27G29G30G31G32J02J03J04R01R02R03R04R05R07
+        R08R09R11R12R13R14R15R16R17R18R19R20R21R22R24R25  0
++        10 11 11  8 10  9  9 12  9 10  8  8 10  8  8  7  8
++         8  8  7  8  8  8  9  8  9  9  8  9  8  8  9  9  7
++         8  8  8  7  8  8  8  7  7  7  8  8  9  9  7  8  7
++         8  7  8  7  8  7  8  8  8  7  7  8  7  7  7  7  7
++         8  8  7  8  7  7  7  7  7  7  8  9  8  8  7  6  7
++         8  7  8  7  8  8  7  8 11 10  9  8 10 10 11 10 10
++        10  9  8  7  9  8  8  7  8  8  9  8  8  8  7  8  0
%c M  cc GPS ccc cccc cccc cccc cccc ccccc ccccc ccccc ccccc
%c cc cc ccc ccc cccc cccc cccc cccc ccccc ccccc ccccc ccccc
%f  0.0000000  0.000000000  0.00000000000  0.000000000000000
%f  0.0000000  0.000000000  0.00000000000  0.000000000000000
%i    0    0    0    0      0      0      0      0         0
%i    0    0    0    0      0      0      0      0         0
/* IAC                                ULTRA-RAPID PREDICTION
/* S/V CLOCKS ARE ALIGNED TO GNSS TIME                      
/* G:C1WC2W R:C1PC2P E:C1XC5X C:C2IC6I J:C1CC2S             
/* PCV:IGS20_2239 OL/AL:FES2004  NONE     YN ORB:CoN CLK:CoN
*  2023 01 13  1 45  0.00000000
PC06  -2303.944206  27084.694342  32291.414295   -409.539641
PC07 -16254.181991  31909.684059 -22310.050065     24.070890
PC08  -6553.884913  40993.796330  -6842.045030    527.510697
PC09   5469.178275  30721.793860  28974.457498    238.561629
PC10 -10802.263081  31790.491822 -25473.315235     33.353111
PC11 -25407.332996 -11019.937508  -3445.732705   -181.203672
PC12 -16068.022724 -18418.517155  13515.067586    394.619337
PC13  -2797.053277  41866.902254  -1893.292550    181.925991
PC14 -21518.864931   -260.933721 -17776.184925    362.502355
PC16  -4283.827261  25620.166729  33457.661082     83.104065
PC19  24626.741659  -7829.589788  10541.153992   -897.352946
PC20  16165.356900   6965.842023  21660.410682    769.504487
PC21   2724.960477 -18674.377578 -20536.548220   -917.323418
PC22  19280.254991 -18809.656387  -7258.921205   -688.781919
PC23 -10353.812849  20322.638822  16067.355710   -871.418479
PC24      0.000000      0.000000      0.000000   -548.654530
PC25 -16158.370894   2112.341002  22640.100352     54.591036
PC26  -2898.168026 -27767.037363    706.791959    -63.504620
PC27   7738.738963  18833.750284 -19105.693087     80.709439
PC28 -11073.054099  11989.927788 -22629.036735     58.252190
PC29  24892.573425   1924.179788  12468.465529     66.666157
PC30  23036.559843  14811.609614  -5426.628190      1.278563
PC32  -2662.429561  18752.387052  20510.370076   -652.034162
PC33 -24579.483329   7923.143445 -10584.398663   -881.539199
PC34 -23603.510558 -14241.220888   4244.541773     82.396412
PC35  12084.779278 -11596.363989  22321.511373    331.117412
PC36  16254.399950   -991.220911 -22646.841103   -698.819476
PC37   1331.875209  27851.427966    615.381818   -849.562636
PC38 -10916.275625  37998.242384 -14377.531839     51.559909
PC39  -9841.936275  22180.304763  34511.386735     -1.395005
PC40 -23799.842571  26741.693960 -22447.056461    -12.399023
PC41 -19564.713606  18738.915731   6744.977792   -487.359150
PC42 -15208.966063  -7928.129394 -21973.427769   -899.333319
PC43 -25157.154897  -2530.423831 -11787.948865      1.781426
PC44  -8130.040641 -18602.934248  19122.664475    175.458433
PC45  10071.516815 -20657.308847 -15858.171857    -46.819344
PC46  13037.485093  18128.148625 -16718.212214    -26.044098
PE01 -10813.788934 -14169.761499  23630.859049   -593.982461
PE02  11088.907557  13790.933116 -23730.018180     14.358762
PE03  22675.628939  10217.181463  16038.994880   -639.353763
PE04 -29495.456150   2187.869561   1135.296463    -34.931955
PE05   2346.943693  16906.736258  24182.297630   -105.744714
PE07  19110.845936 -13602.209307 -18050.170078    -14.718016
PE08  29498.074628  -2184.374909  -1045.022465    -18.512620
PE09 -19276.594718  13455.183302  17991.325966   -798.027999
PE10 -15087.602695   6031.466517 -24741.465001   -504.668228
PE11  -7705.770520  16211.232920 -23541.947775    434.626544
PE12 -19502.219189  -4060.951948 -21882.442335   -382.062644
PE13   8337.674338 -15399.431794  23873.275556    429.958996
PE14 -27439.148597   9657.452315 -14130.251530    111.805709
PE15  19572.836274   4413.432240  21776.658831    694.541819
PE18  20868.868722  -5845.899429   9343.324363   -516.016770
PE19 -20490.130316 -11571.885963 -17949.142883  -3501.480034
PE21   3116.426661 -26117.380300  13584.861215   -505.920094
PE24 -16882.981388  23593.226849   5773.138442  -1054.831595
PE25  -3354.583408  26204.492665 -13335.041573   -597.055438
PE26  -8183.573231 -26163.632178  11177.685257  -1853.116824
PE27  16402.617745 -24147.640053  -4963.986013   -486.314556
PE30  19879.603295  -7162.498103 -20750.860246  -1155.669922
PE31 -19896.775357   7958.784279  20416.744964   -513.167745
PE33 -19165.794604 -21491.692648  -6822.044596   -454.326015
PE34  19268.944374  21347.741520   6998.726545    -24.539028
PE36   7670.760281  25974.998616 -11943.905855   -489.580286
PG01  17470.328276   6774.279938  18652.571035    225.157267
PG02 -17286.294546  -1921.511863 -19376.646310   -627.650398
PG03  17723.272146  -4321.809443  19142.967385   -372.484459
PG04  26573.338134    389.035690  -1538.431556    -49.871965
PG05 -11215.857059 -10820.350655 -21663.727900   -111.765089
PG06  -3641.297307 -23391.796676  12020.865971    557.520916
PG07  12454.727459  -8898.174851 -21252.522347    259.722117
PG08  23854.148252   6885.306408 -10004.733517   -103.280533
PG09  22299.509984  -8395.727732 -11862.016535   -237.446541
PG10 -10517.656943  23754.763591   4813.009394    -20.176119
PG11 -11995.411050 -23709.510442   -663.086298    -77.452892
PG12 -17680.680366   1797.986299  19428.828749   -327.407965
PG13 -17936.981436 -13152.623113 -14834.846345    458.397246
PG14  13018.760311 -22959.510646   2304.444374    -50.503586
PG15 -24461.375974  -4685.861829 -10058.416598      4.129753
PG16   7584.023877  14395.870515 -21195.941697   -524.009754
PG17  11046.938537 -13148.295768  20725.436983    692.937374
PG18 -10086.318295  12083.205992 -21368.336568    -96.787777
PG19  -1676.360282 -15001.878488  21645.912269    263.344897
PG20  -3954.852900 -20981.532784 -15905.968561    457.430100
PG21  19803.907435  13366.571181  13004.771989    153.402718
PG23 -16398.394711  19698.690232  -6671.747244      2.316851
PG24 -19697.105218  -9595.390315  14950.038965    -27.427462
PG25 -18675.469970  11967.497347  14088.607296    410.786281
PG26   -902.112678  22883.929933 -13264.057760    240.204203
PG27  15061.557269  12749.662600 -18198.845750    128.494137
PG29 -24307.023066   4362.953767  -9922.843002   -580.058518
PG30   3471.414826 -19977.605423 -16930.219422   -533.400364
PG31   4477.822771  23892.128417   9970.742402   -206.160269
PG32  -7017.497106  14707.307604  21096.208867   -362.117513
PJ02 -33179.457519  24895.812515  12723.396851     -0.556248
PJ03 -22640.612469  19256.082324 -25274.392958     -0.074047
PJ04 -25803.422758  33613.110477   6448.940914    118.529983
PR01 -22782.504417   4991.307049 -10339.413976     21.155821
PR02 -20277.629753  12839.231105   8579.402258    -23.320010
PR03  -5547.354574  13225.194496  21121.949784     70.759478
PR04  11739.519670   6098.591817  21839.685978    172.102410
PR05  22827.270296  -4159.127184  10639.401985    106.094683
PR07   4900.764788 -13044.758318 -21340.284185     47.898326
PR08 -11926.870252  -6031.135259 -21662.609193    -68.990482
PR09   9043.425272 -18799.255532 -14613.806830     98.243738
PR11  -6064.344761 -18299.495430  16703.239304      6.897018
PR12 -11161.509045    869.098438  22937.389792     24.278713
PR13  -9488.556813  17466.613385  15960.879827    -30.896853
PR14  -1837.585641  25380.371945  -1859.428705     24.218211
PR15   6403.532567  17519.646378 -17385.286063     91.735990
PR16  10970.538611   -580.140141 -23017.246057      9.887798
PR17   6425.369102  15708.653375 -19013.474701    595.276071
PR18  18333.414255  17026.353675  -5086.535340     61.504870
PR19  20619.556477  10935.736871  10296.744713   -218.057141
PR20  10403.835107  -4585.593353  22853.447221    -85.755308
PR21  -7865.864639 -16266.020093  18023.150960   -364.993949
PR22 -17962.052177 -17584.756227   4321.350507     66.371009
PR24  -9983.065976   5764.150261 -22732.783705    139.233550
PR25  -5199.919227 -16088.145851  19116.332623     51.447517
EOF
